[{"OBJECT_NAME":"STARLINK-31574","OBJECT_ID":"2024-074K","EPOCH":"2026-03-09T04:07:35.313600","MEAN_MOTION":15.2757108,"ECCENTRICITY":9.803e-5,"INCLINATION":43.0004,"RA_OF_ASC_NODE":346.5792,"ARG_OF_PERICENTER":281.8473,"MEAN_ANOMALY":78.2269,"EPHEMERIS_TYPE":0,"CLASSIFICATION_TYPE":"U","NORAD_CAT_ID":59543,"ELEMENT_SET_NO":999,"REV_AT_EPOCH":10593,"BSTAR":-8.0926251e-5,"MEAN_MOTION_DOT":-2.487e-5,"MEAN_MOTION_DDOT":0},{"OBJECT_NAME":"CZ-4B R\/B","OBJECT_ID":"2010-051C","EPOCH":"2026-03-09T16:48:37.977120","MEAN_MOTION":15.17426017,"ECCENTRICITY":0.00758037,"INCLINATION":97.7974,"RA_OF_ASC_NODE":110.8647,"ARG_OF_PERICENTER":95.044,"MEAN_ANOMALY":265.9451,"EPHEMERIS_TYPE":0,"CLASSIFICATION_TYPE":"U","NORAD_CAT_ID":37181,"ELEMENT_SET_NO":999,"REV_AT_EPOCH":84355,"BSTAR":0.00029718512,"MEAN_MOTION_DOT":6.328e-5,"MEAN_MOTION_DDOT":0}]
